STARLINK-1379
1 15549C 20025U   21326.14801866  .01231544  00000-0  34880-1 0  3262
2 15549  53.0544 306.8383 0001353  63.4468  45.7788 15.34488888    11
